{
  "type": "FeatureCollection",
  "features": [
    {
      "type": "Feature",
      "properties": {
        "norad_id": 33844,
        "name": "COSMOS 2251 DEB",
        "group": "cosmos-2251-debris",
        "lat": 74.045329295109,
        "lon": 131.1928339944543,
        "alt_km": 743.2830876229291,
        "timestamp": "2025-12-20T07:33:51.205847+00:00",
        "meta_object_name": "COSMOS 2251 DEB",
        "meta_object_id": "1993-036CM",
        "meta_epoch": "2025-12-19T19:58:43.369824",
        "meta_mean_motion": 14.33729447,
        "meta_eccentricity": 0.00470875,
        "meta_inclination": 74.0667,
        "meta_ra_of_asc_node": 39.8299,
        "meta_arg_of_pericenter": 59.468,
        "meta_mean_anomaly": 60.2898,
        "meta_ephemeris_type": 0,
        "meta_classification_type": "U",
        "meta_norad_cat_id": 33844,
        "meta_element_set_no": 999,
        "meta_rev_at_epoch": 87827,
        "meta_bstar": 0.00025290099,
        "meta_mean_motion_dot": 6.86e-06,
        "meta_mean_motion_ddot": 0,
        "tle_line1": "1 33844U 93036CM  25353.83244641  .00000686  00000+0  25290-3 0  9993",
        "tle_line2": "2 33844  74.0667  39.8299 0047087  59.4680  60.2898 14.33729447878271"
      },
      "geometry": {
        "type": "Point",
        "coordinates": [
          131.1928339944543,
          74.045329295109
        ]
      }
    },
    {
      "type": "Feature",
      "properties": {
        "norad_id": 33848,
        "name": "COSMOS 2251 DEB",
        "group": "cosmos-2251-debris",
        "lat": -11.807369100338192,
        "lon": 166.97949338137107,
        "alt_km": 775.7696505162885,
        "timestamp": "2025-12-20T07:33:51.205860+00:00",
        "meta_object_name": "COSMOS 2251 DEB",
        "meta_object_id": "1993-036CR",
        "meta_epoch": "2025-12-19T09:45:29.312064",
        "meta_mean_motion": 14.44103638,
        "meta_eccentricity": 0.0041509,
        "meta_inclination": 74.0314,
        "meta_ra_of_asc_node": 345.2377,
        "meta_arg_of_pericenter": 39.0319,
        "meta_mean_anomaly": 111.31,
        "meta_ephemeris_type": 0,
        "meta_classification_type": "U",
        "meta_norad_cat_id": 33848,
        "meta_element_set_no": 999,
        "meta_rev_at_epoch": 87927,
        "meta_bstar": 0.00076035,
        "meta_mean_motion_dot": 2.606e-05,
        "meta_mean_motion_ddot": 0,
        "tle_line1": "1 33848U 93036CR  25353.40658926  .00002606  00000+0  76035-3 0  9992",
        "tle_line2": "2 33848  74.0314 345.2377 0041509  39.0319 111.3100 14.44103638879276"
      },
      "geometry": {
        "type": "Point",
        "coordinates": [
          166.97949338137107,
          -11.807369100338192
        ]
      }
    },
    {
      "type": "Feature",
      "properties": {
        "norad_id": 33892,
        "name": "COSMOS 2251 DEB",
        "group": "cosmos-2251-debris",
        "lat": -73.65277292829711,
        "lon": 5.952072876975925,
        "alt_km": 893.5875997348285,
        "timestamp": "2025-12-20T07:33:51.205874+00:00",
        "meta_object_name": "COSMOS 2251 DEB",
        "meta_object_id": "1993-036CV",
        "meta_epoch": "2025-12-19T13:30:25.631424",
        "meta_mean_motion": 14.23360104,
        "meta_eccentricity": 0.011247,
        "meta_inclination": 73.8027,
        "meta_ra_of_asc_node": 89.6107,
        "meta_arg_of_pericenter": 119.5256,
        "meta_mean_anomaly": 258.3174,
        "meta_ephemeris_type": 0,
        "meta_classification_type": "U",
        "meta_norad_cat_id": 33892,
        "meta_element_set_no": 999,
        "meta_rev_at_epoch": 87052,
        "meta_bstar": 0.00046603,
        "meta_mean_motion_dot": 1.102e-05,
        "meta_mean_motion_ddot": 0,
        "tle_line1": "1 33892U 93036CV  25353.56279666  .00001102  00000+0  46603-3 0  9996",
        "tle_line2": "2 33892  73.8027  89.6107 0112470 119.5256 258.3174 14.23360104870525"
      },
      "geometry": {
        "type": "Point",
        "coordinates": [
          5.952072876975925,
          -73.65277292829711
        ]
      }
    },
    {
      "type": "Feature",
      "properties": {
        "norad_id": 33894,
        "name": "COSMOS 2251 DEB",
        "group": "cosmos-2251-debris",
        "lat": -67.65232928513052,
        "lon": -67.76627225926974,
        "alt_km": 800.7782321714158,
        "timestamp": "2025-12-20T07:33:51.205886+00:00",
        "meta_object_name": "COSMOS 2251 DEB",
        "meta_object_id": "1993-036CX",
        "meta_epoch": "2025-12-19T01:02:02.974272",
        "meta_mean_motion": 13.21318804,
        "meta_eccentricity": 0.05792005,
        "meta_inclination": 73.767,
        "meta_ra_of_asc_node": 339.3249,
        "meta_arg_of_pericenter": 257.9221,
        "meta_mean_anomaly": 95.6429,
        "meta_ephemeris_type": 0,
        "meta_classification_type": "U",
        "meta_norad_cat_id": 33894,
        "meta_element_set_no": 999,
        "meta_rev_at_epoch": 80791,
        "meta_bstar": 0.001105682,
        "meta_mean_motion_dot": 1.077e-05,
        "meta_mean_motion_ddot": 0,
        "tle_line1": "1 33894U 93036CX  25353.04308998  .00001077  00000+0  11057-2 0  9997",
        "tle_line2": "2 33894  73.7670 339.3249 0579200 257.9221  95.6429 13.21318804807914"
      },
      "geometry": {
        "type": "Point",
        "coordinates": [
          -67.76627225926974,
          -67.65232928513052
        ]
      }
    },
    {
      "type": "Feature",
      "properties": {
        "norad_id": 33896,
        "name": "COSMOS 2251 DEB",
        "group": "cosmos-2251-debris",
        "lat": -40.076021287962554,
        "lon": -22.880186684423087,
        "alt_km": 842.1226217469184,
        "timestamp": "2025-12-20T07:33:51.205896+00:00",
        "meta_object_name": "COSMOS 2251 DEB",
        "meta_object_id": "1993-036CZ",
        "meta_epoch": "2025-12-19T20:54:55.245600",
        "meta_mean_motion": 14.19053906,
        "meta_eccentricity": 0.01268079,
        "meta_inclination": 73.7663,
        "meta_ra_of_asc_node": 143.7355,
        "meta_arg_of_pericenter": 318.2939,
        "meta_mean_anomaly": 159.354,
        "meta_ephemeris_type": 0,
        "meta_classification_type": "U",
        "meta_norad_cat_id": 33896,
        "meta_element_set_no": 999,
        "meta_rev_at_epoch": 86841,
        "meta_bstar": 0.00030590791,
        "meta_mean_motion_dot": 6.64e-06,
        "meta_mean_motion_ddot": 0,
        "tle_line1": "1 33896U 93036CZ  25353.87147275  .00000664  00000+0  30591-3 0  9995",
        "tle_line2": "2 33896  73.7663 143.7355 0126807 318.2939 159.3540 14.19053906868412"
      },
      "geometry": {
        "type": "Point",
        "coordinates": [
          -22.880186684423087,
          -40.076021287962554
        ]
      }
    },
    {
      "type": "Feature",
      "properties": {
        "norad_id": 33899,
        "name": "COSMOS 2251 DEB",
        "group": "cosmos-2251-debris",
        "lat": -45.76648731815556,
        "lon": 54.18053829298068,
        "alt_km": 735.341957478202,
        "timestamp": "2025-12-20T07:33:51.205907+00:00",
        "meta_object_name": "COSMOS 2251 DEB",
        "meta_object_id": "1993-036DC",
        "meta_epoch": "2025-12-19T16:02:18.475296",
        "meta_mean_motion": 14.61246062,
        "meta_eccentricity": 0.0056297,
        "meta_inclination": 74.0545,
        "meta_ra_of_asc_node": 72.4927,
        "meta_arg_of_pericenter": 133.1792,
        "meta_mean_anomaly": 17.084,
        "meta_ephemeris_type": 0,
        "meta_classification_type": "U",
        "meta_norad_cat_id": 33899,
        "meta_element_set_no": 999,
        "meta_rev_at_epoch": 88940,
        "meta_bstar": 0.00054952,
        "meta_mean_motion_dot": 2.742e-05,
        "meta_mean_motion_ddot": 0,
        "tle_line1": "1 33899U 93036DC  25353.66826939  .00002742  00000+0  54952-3 0  9992",
        "tle_line2": "2 33899  74.0545  72.4927 0056297 133.1792  17.0840 14.61246062889406"
      },
      "geometry": {
        "type": "Point",
        "coordinates": [
          54.18053829298068,
          -45.76648731815556
        ]
      }
    },
    {
      "type": "Feature",
      "properties": {
        "norad_id": 33900,
        "name": "COSMOS 2251 DEB",
        "group": "cosmos-2251-debris",
        "lat": -74.00552742341435,
        "lon": -105.64395184378871,
        "alt_km": 728.3342858370834,
        "timestamp": "2025-12-20T07:33:51.205917+00:00",
        "meta_object_name": "COSMOS 2251 DEB",
        "meta_object_id": "1993-036DD",
        "meta_epoch": "2025-12-19T22:31:35.465088",
        "meta_mean_motion": 14.58369996,
        "meta_eccentricity": 0.00465188,
        "meta_inclination": 74.0182,
        "meta_ra_of_asc_node": 346.1464,
        "meta_arg_of_pericenter": 136.1694,
        "meta_mean_anomaly": 316.9143,
        "meta_ephemeris_type": 0,
        "meta_classification_type": "U",
        "meta_norad_cat_id": 33900,
        "meta_element_set_no": 999,
        "meta_rev_at_epoch": 89141,
        "meta_bstar": 0.00026004745,
        "meta_mean_motion_dot": 1.192e-05,
        "meta_mean_motion_ddot": 0,
        "tle_line1": "1 33900U 93036DD  25353.93860492  .00001192  00000+0  26005-3 0  9993",
        "tle_line2": "2 33900  74.0182 346.1464 0046518 136.1694 316.9143 14.58369996891411"
      },
      "geometry": {
        "type": "Point",
        "coordinates": [
          -105.64395184378871,
          -74.00552742341435
        ]
      }
    }
  ]
}